{
    "links": {
        "self": "http://www.neowsapp.com/rest/v1/neo/3596031?api_key=iIulBulltgU6a56xZRHN4H3l9WmuAYTsLGpBGhQ2"
    },
    "id": "3596031",
    "neo_reference_id": "3596031",
    "name": "(2012 BW13)",
    "designation": "2012 BW13",
    "nasa_jpl_url": "http://ssd.jpl.nasa.gov/sbdb.cgi?sstr=3596031",
    "absolute_magnitude_h": 27.2,
    "estimated_diameter": {
        "kilometers": {
            "estimated_diameter_min": 0.0096506147,
            "estimated_diameter_max": 0.0215794305
        },
        "meters": {
            "estimated_diameter_min": 9.6506146958,
            "estimated_diameter_max": 21.5794304844
        },
        "miles": {
            "estimated_diameter_min": 0.0059966121,
            "estimated_diameter_max": 0.0134088323
        },
        "feet": {
            "estimated_diameter_min": 31.6621227185,
            "estimated_diameter_max": 70.7986587106
        }
    },
    "is_potentially_hazardous_asteroid": false,
    "close_approach_data": [
        {
            "close_approach_date": "2007-02-19",
            "close_approach_date_full": "2007-Feb-19 11:53",
            "epoch_date_close_approach": 1171885980000,
            "relative_velocity": {
                "kilometers_per_second": "16.0855280676",
                "kilometers_per_hour": "57907.9010434342",
                "miles_per_hour": "35981.7177344605"
            },
            "miss_distance": {
                "astronomical": "0.0147390988",
                "lunar": "5.7335094332",
                "kilometers": "2204937.786199556",
                "miles": "1370084.8086676328"
            },
            "orbiting_body": "Mars"
        },
        {
            "close_approach_date": "2012-01-26",
            "close_approach_date_full": "2012-Jan-26 06:03",
            "epoch_date_close_approach": 1327557780000,
            "relative_velocity": {
                "kilometers_per_second": "11.7997936282",
                "kilometers_per_hour": "42479.2570615085",
                "miles_per_hour": "26394.9583669134"
            },
            "miss_distance": {
                "astronomical": "0.0044406747",
                "lunar": "1.7274224583",
                "kilometers": "664315.476482889",
                "miles": "412786.4959223082"
            },
            "orbiting_body": "Earth"
        },
        {
            "close_approach_date": "2012-01-26",
            "close_approach_date_full": "2012-Jan-26 09:34",
            "epoch_date_close_approach": 1327570440000,
            "relative_velocity": {
                "kilometers_per_second": "12.6556736403",
                "kilometers_per_hour": "45560.4251049065",
                "miles_per_hour": "28309.4763658793"
            },
            "miss_distance": {
                "astronomical": "0.0065577635",
                "lunar": "2.5509700015",
                "kilometers": "981027.451563745",
                "miles": "609582.191699881"
            },
            "orbiting_body": "Moon"
        },
        {
            "close_approach_date": "2108-06-01",
            "close_approach_date_full": "2108-Jun-01 08:09",
            "epoch_date_close_approach": 4367981340000,
            "relative_velocity": {
                "kilometers_per_second": "20.339387267",
                "kilometers_per_hour": "73221.7941612882",
                "miles_per_hour": "45497.1753776071"
            },
            "miss_distance": {
                "astronomical": "0.2913765905",
                "lunar": "113.3454937045",
                "kilometers": "43589317.306662235",
                "miles": "27085145.819459443"
            },
            "orbiting_body": "Earth"
        }
    ],
    "orbital_data": {
        "orbit_id": "10",
        "orbit_determination_date": "2017-04-06 08:51:22",
        "first_observation_date": "2012-01-19",
        "last_observation_date": "2012-01-24",
        "data_arc_in_days": 5,
        "observations_used": 34,
        "orbit_uncertainty": "7",
        "minimum_orbit_intersection": ".00149782",
        "jupiter_tisserand_invariant": "3.767",
        "epoch_osculation": "2459000.5",
        "eccentricity": ".5404858678560525",
        "semi_major_axis": "1.889886540848913",
        "inclination": "1.096390904627552",
        "ascending_node_longitude": "310.5063830813244",
        "orbital_period": "948.9689989442815",
        "perihelion_distance": ".8684295736687155",
        "perihelion_argument": "223.936702992954",
        "aphelion_distance": "2.911343508029111",
        "perihelion_time": "2458833.610355025742",
        "mean_anomaly": "63.31110105553686",
        "mean_motion": ".3793590732684591",
        "equinox": "J2000",
        "orbit_class": {
            "orbit_class_type": "APO",
            "orbit_class_description": "Near-Earth asteroid orbits which cross the Earth’s orbit similar to that of 1862 Apollo",
            "orbit_class_range": "a (semi-major axis) > 1.0 AU; q (perihelion) < 1.017 AU"
        }
    },
    "is_sentry_object": false
}